{
  "norad_id": 55951,
  "name": "STARLINK-5908",
  "history": [
    {
      "epoch": "2026-03-28T20:13:24.464928",
      "apogee_km": 574.1499502065108,
      "perigee_km": 569.9445327256844,
      "latitude_deg": 6.880071743223848,
      "longitude_deg": -144.00615007989109,
      "semi_major_axis_km": 6950.184241466097,
      "eccentricity": 0.00030254,
      "inclination_deg": 70.0,
      "raan_deg": 235.9776,
      "arg_perigee_deg": 270.0547,
      "mean_anomaly_deg": 90.0266,
      "mean_motion_rev_day": 14.98332797
    },
    {
      "epoch": "2026-03-29T02:37:56.840160",
      "apogee_km": 574.144970588929,
      "perigee_km": 569.9623458508113,
      "latitude_deg": -65.96286343584158,
      "longitude_deg": -118.37017760006711,
      "semi_major_axis_km": 6950.19065821987,
      "eccentricity": 0.0003009,
      "inclination_deg": 70.0,
      "raan_deg": 235.3043,
      "arg_perigee_deg": 270.1889,
      "mean_anomaly_deg": 89.8925,
      "mean_motion_rev_day": 14.98330722
    }
  ]
}